NORAD_CAT_ID,OBJECT_NAME,OBJECT_TYPE,EPOCH,MEAN_MOTION,ECCENTRICITY,INCLINATION,RA_OF_ASC_NODE,ARG_OF_PERICENTER,MEAN_ANOMALY,BSTAR,MEAN_MOTION_DOT,MEAN_MOTION_DDOT,TLE_LINE0,TLE_LINE1,TLE_LINE2,SEMIMAJOR_AXIS,PERIOD,APOGEE,PERIGEE,DECAYED
49440.0,STARLINK-3105,PAYLOAD,2022-11-30 20:23:24,15.08832953,0.0003267,53.2162,172.9791,46.5741,313.5523,6.1263e-05,6.86e-06,0.0,0 STARLINK-3105,1 49440U 21104AJ  22334.84959028  .00000686  00000-0  61263-4 0  9990,2 49440  53.2162 172.9791 0003267  46.5741 313.5523 15.08832953 58530,6917.901999999999,95.438,542.0269999999998,537.507,0.0
49440.0,STARLINK-3105,PAYLOAD,2022-12-01 12:17:15,15.0882951,0.000322,53.2162,170.0056,53.6709,306.458,0.00013581,1.873e-05,0.0,0 STARLINK-3105,1 49440U 21104AJ  22335.51199061  .00001873  00000-0  13581-3 0  9996,2 49440  53.2162 170.0056 0003220  53.6709 306.4580 15.08829510 58635,6917.9119999999975,95.438,542.005,537.55,0.0
49440.0,STARLINK-3105,PAYLOAD,2022-12-01 20:14:12,15.08791384,0.000337,53.216,168.519,59.5679,300.5646,0.00071619,0.00011114,0.0,0 STARLINK-3105,1 49440U 21104AJ  22335.84320413  .00011114  00000-0  71619-3 0  9994,2 49440  53.2160 168.5190 0003370  59.5679 300.5646 15.08791384 59750,6918.029,95.441,542.225,537.563,0.0
49440.0,STARLINK-3105,PAYLOAD,2022-12-02 12:08:04,15.08824796,0.0003281,53.2157,165.5457,49.8868,310.2411,-2.5676e-05,-6.97e-06,0.0,0 STARLINK-3105,1 49440U 21104AJ  22336.50560575 -.00000697  00000-0 -25676-4 0  9992,2 49440  53.2157 165.5457 0003281  49.8868 310.2411 15.08824796 59855,6917.927,95.439,542.062,537.5219999999998,0.0
49440.0,STARLINK-3105,PAYLOAD,2022-12-02 15:18:50,15.08825353,0.0003278,53.2158,164.9507,50.3227,309.8053,-1.7732e-05,-5.71e-06,0.0,0 STARLINK-3105,1 49440U 21104AJ  22336.63808630 -.00000571  00000-0 -17732-4 0  9998,2 49440  53.2158 164.9507 0003278  50.3227 309.8053 15.08825353 58807,6917.925,95.438,542.058,537.5219999999998,0.0
49440.0,STARLINK-3105,PAYLOAD,2022-12-03 13:34:15,15.0882883,0.0003301,53.2158,160.7873,52.9156,307.2137,-9.6181e-06,-4.42e-06,0.0,0 STARLINK-3105,1 49440U 21104AJ  22337.56545213 -.00000442  00000-0 -96181-5 0  9999,2 49440  53.2158 160.7873 0003301  52.9156 307.2137 15.08828830 60017,6917.915,95.438,542.063,537.496,0.0
49440.0,STARLINK-3105,PAYLOAD,2022-12-03 18:20:24,15.08831158,0.0003332,53.2159,159.8953,52.6036,307.5259,-9.91e-06,-4.47e-06,0.0,0 STARLINK-3105,1 49440U 21104AJ  22337.76417234 -.00000447  00000-0 -99100-5 0  9991,2 49440  53.2159 159.8953 0003332  52.6036 307.5259 15.08831158 58971,6917.906999999997,95.438,542.077,537.467,0.0
49440.0,STARLINK-3105,PAYLOAD,2022-12-04 05:28:06,15.08825491,0.0003312,53.216,157.8137,52.7237,307.4056,0.0001098,1.459e-05,0.0,0 STARLINK-3105,1 49440U 21104AJ  22338.22785665  .00001459  00000-0  10980-3 0  9998,2 49440  53.2160 157.8137 0003312  52.7237 307.4056 15.08825491 59043,6917.925,95.438,542.081,537.499,0.0
49440.0,STARLINK-3105,PAYLOAD,2022-12-04 18:11:12,15.08828384,0.0003337,53.216,155.4346,53.8874,306.2427,0.00011908,1.606e-05,0.0,0 STARLINK-3105,1 49440U 21104AJ  22338.75777966  .00001606  00000-0  11908-3 0  9996,2 49440  53.2160 155.4346 0003337  53.8874 306.2427 15.08828384 60196,6917.916,95.438,542.089,537.472,0.0
49440.0,STARLINK-3105,PAYLOAD,2022-12-05 05:18:54,15.08835131,0.000337,53.2163,153.3531,54.6972,305.4335,0.00014652,2.044e-05,0.0,0 STARLINK-3105,1 49440U 21104AJ  22339.22145864  .00002044  00000-0  14652-3 0  9991,2 49440  53.2163 153.3531 0003370  54.6972 305.4335 15.08835131 59192,6917.895,95.438,542.092,537.429,0.0
49440.0,STARLINK-3105,PAYLOAD,2022-12-05 18:01:58,15.08841099,0.0003383,53.2164,150.9741,55.7972,304.334,0.00016049,2.267e-05,0.0,0 STARLINK-3105,1 49440U 21104AJ  22339.75137728  .00002267  00000-0  16049-3 0  9998,2 49440  53.2164 150.9741 0003383  55.7972 304.3340 15.08841099 60348,6917.877,95.437,542.082,537.4019999999998,0.0
49440.0,STARLINK-3105,PAYLOAD,2022-12-06 05:09:40,15.08845651,0.0003393,53.2166,148.8924,56.8474,303.2843,0.00018795,2.704e-05,0.0,0 STARLINK-3105,1 49440U 21104AJ  22340.21505462  .00002704  00000-0  18795-3 0  9991,2 49440  53.2166 148.8924 0003393  56.8474 303.2843 15.08845651 59341,6917.863,95.437,542.075,537.381,0.0
49440.0,STARLINK-3105,PAYLOAD,2022-12-06 21:03:31,15.08854524,0.0003471,53.2152,145.9187,57.584,302.5487,0.00026518,3.936e-05,0.0,0 STARLINK-3105,1 49440U 21104AJ  22340.87745054  .00003936  00000-0  26518-3 0  9996,2 49440  53.2152 145.9187 0003471  57.5840 302.5487 15.08854524 59443,6917.8359999999975,95.437,542.102,537.3,0.0
49440.0,STARLINK-3105,PAYLOAD,2022-12-07 11:21:59,15.08857016,0.0003496,53.215,143.2424,58.6943,301.4391,0.00022112,3.234e-05,0.0,0 STARLINK-3105,1 49440U 21104AJ  22341.47360487  .00003234  00000-0  22112-3 0  9993,2 49440  53.2150 143.2424 0003496  58.6943 301.4391 15.08857016 59530,6917.828,95.436,542.112,537.275,0.0
49440.0,STARLINK-3105,PAYLOAD,2022-12-08 03:15:50,15.08856096,0.0003061,53.2161,140.2684,61.6733,298.4568,0.00010269,1.347e-05,0.0,0 STARLINK-3105,1 49440U 21104AJ  22342.13599740  .00001347  00000-0  10269-3 0  9996,2 49440  53.2161 140.2684 0003061  61.6733 298.4568 15.08856096 60705,6917.831,95.437,541.814,537.5790000000002,0.0
49440.0,STARLINK-3105,PAYLOAD,2022-12-08 09:37:22,15.08859164,0.0003495,53.2155,139.0786,59.6057,300.528,0.00014529,2.026e-05,0.0,0 STARLINK-3105,1 49440U 21104AJ  22342.40095488  .00002026  00000-0  14529-3 0  9994,2 49440  53.2155 139.0786 0003495  59.6057 300.5280 15.08859164 59673,6917.821999999999,95.436,542.105,537.269,0.0
49440.0,STARLINK-3105,PAYLOAD,2022-12-08 19:09:41,15.08843116,0.000349,53.2156,137.2957,61.7512,298.3832,7.293e-05,8.72e-06,0.0,0 STARLINK-3105,1 49440U 21104AJ  22342.79839950  .00000872  00000-0  72930-4 0  9994,2 49440  53.2156 137.2957 0003490  61.7512 298.3832 15.08843116 60803,6917.871,95.437,542.15,537.322,0.0
49440.0,STARLINK-3105,PAYLOAD,2022-12-09 12:38:55,15.0883851,0.0003232,53.2167,134.0264,54.5744,305.5549,-0.00020336,-3.524e-05,0.0,0 STARLINK-3105,1 49440U 21104AJ  22343.52703660 -.00003524  00000-0 -20336-3 0  9995,2 49440  53.2167 134.0264 0003232  54.5744 305.5549 15.08838510 59842,6917.885,95.438,541.986,537.514,0.0
49440.0,STARLINK-3105,PAYLOAD,2022-12-10 14:05:04,15.08860691,0.000257,53.2176,129.27200000000002,59.6834,300.4412,-0.0012651,-0.00020379,0.0,0 STARLINK-3105,1 49440U 21104AJ  22344.58685376 -.00020379  00000-0 -12651-2 0  9992,2 49440  53.2176 129.2720 0002570  59.6834 300.4412 15.08860691 61071,6917.816999999999,95.436,541.46,537.904,0.0
49440.0,STARLINK-3105,PAYLOAD,2022-12-10 18:51:14,15.088497899999998,0.0003543,53.2172,128.3771,56.9972,303.1361,0.00024012,3.536e-05,0.0,0 STARLINK-3105,1 49440U 21104AJ  22344.78558908  .00003536  00000-0  24012-3 0  9993,2 49440  53.2172 128.3771 0003543  56.9972 303.1361 15.08849790 61101,6917.85,95.437,542.1659999999998,537.264,0.0
49440.0,STARLINK-3105,PAYLOAD,2022-12-11 13:55:52,15.08845055,0.0002709,53.2174,124.8087,59.2253,300.9005,0.00013658,1.886e-05,0.0,0 STARLINK-3105,1 49440U 21104AJ  22345.58046855  .00001886  00000-0  13658-3 0  9995,2 49440  53.2174 124.8087 0002709  59.2253 300.9005 15.08845055 61228,6917.865,95.437,541.604,537.856,0.0
49440.0,STARLINK-3105,PAYLOAD,2022-12-11 18:42:02,15.08836574,0.0003127,53.2158,123.9141,57.3908,302.7385,5.0909e-05,5.22e-06,0.0,0 STARLINK-3105,1 49440U 21104AJ  22345.77919448  .00000522  00000-0  50909-4 0  9990,2 49440  53.2158 123.9141 0003127  57.3908 302.7385 15.08836574 61252,6917.891,95.438,541.919,537.5930000000002,0.0
49440.0,STARLINK-3105,PAYLOAD,2022-12-12 12:11:16,15.08846728,0.0002916,53.2165,120.6419,60.8676,299.2608,3.3101e-05,2.38e-06,0.0,0 STARLINK-3105,1 49440U 21104AJ  22346.50782899  .00000238  00000-0  33101-4 0  9999,2 49440  53.2165 120.6419 0002916  60.8676 299.2608 15.08846728 61360,6917.86,95.437,541.742,537.7080000000002,0.0
49440.0,STARLINK-3105,PAYLOAD,2022-12-12 18:32:49,15.08842699,0.0002911,53.2167,119.4524,66.029,294.1006,-3.2587e-06,-3.41e-06,0.0,0 STARLINK-3105,1 49440U 21104AJ  22346.77279075 -.00000341  00000-0 -32587-5 0  9990,2 49440  53.2167 119.4524 0002911  66.0290 294.1006 15.08842699 60335,6917.871999999999,95.437,541.751,537.7230000000002,0.0
49440.0,STARLINK-3105,PAYLOAD,2022-12-13 02:29:44,15.088394400000002,0.000287,53.2165,117.9651,61.18600000000001,298.942,9.231e-05,1.181e-05,0.0,0 STARLINK-3105,1 49440U 21104AJ  22347.10399286  .00001181  00000-0  92310-4 0  9995,2 49440  53.2165 117.9651 0002870  61.1860 298.9420 15.08839440 61456,6917.882,95.438,541.7330000000002,537.762,0.0
49440.0,STARLINK-3105,PAYLOAD,2022-12-13 12:02:03,15.08838155,0.0003034,53.2165,116.1822,65.2232,294.9076,3.0424000000000007e-06,-2.4e-06,0.0,0 STARLINK-3105,1 49440U 21104AJ  22347.50143470 -.00000240  00000-0  30424-5 0  9996,2 49440  53.2165 116.1822 0003034  65.2232 294.9076 15.08838155 60441,6917.886,95.438,541.85,537.6519999999998,0.0
49440.0,STARLINK-3105,PAYLOAD,2022-12-13 18:23:36,15.08841702,0.0003115,53.2169,114.9941,60.4728,299.6575,4.815e-05,4.78e-06,0.0,0 STARLINK-3105,1 49440U 21104AJ  22347.76639334  .00000478  00000-0  48150-4 0  9999,2 49440  53.2169 114.9941 0003115  60.4728 299.6575 15.08841702 60482,6917.875,95.437,541.895,537.585,0.0
49440.0,STARLINK-3105,PAYLOAD,2022-12-14 13:28:13,15.08844646,0.0003135,53.2167,111.426,61.2006,298.9301,6.8243e-05,7.98e-06,0.0,0 STARLINK-3105,1 49440U 21104AJ  22348.56127235  .00000798  00000-0  68243-4 0  9990,2 49440  53.2167 111.4260 0003135  61.2006 298.9301 15.08844646 61677,6917.866,95.437,541.9,537.562,0.0
49440.0,STARLINK-3105,PAYLOAD,2022-12-14 19:49:46,15.0883482,0.0002944,53.2163,110.235,58.119,302.0088,4.5782e-05,4.4e-06,0.0,0 STARLINK-3105,1 49440U 21104AJ  22348.82623734  .00000440  00000-0  45782-4 0  9991,2 49440  53.2163 110.2350 0002944  58.1190 302.0088 15.08834820 60644,6917.896,95.438,541.798,537.725,0.0
